{
  "type": "FeatureCollection",
  "features": [
    {
      "type": "Feature",
      "properties": {
        "region_id": "TW_ADIZ_SW",
        "name": "Taiwan ADIZ - Southwest Sector",
        "theater": "Taiwan Strait / East Asia",
        "domain": "airspace",
        "min_altitude_ft": 0,
        "max_altitude_ft": 60000,
        "description": "Southwestern sector of the Taiwan Air Defense Identification Zone, subject to recurrent PLA grey-zone incursions."
      },
      "geometry": {
        "type": "Polygon",
        "coordinates": [
          [
            [117.5, 21.0],
            [120.0, 21.0],
            [120.5, 22.5],
            [119.0, 23.5],
            [117.5, 22.5],
            [117.5, 21.0]
          ]
        ]
      }
    },
    {
      "type": "Feature",
      "properties": {
        "region_id": "GIUK_GAP",
        "name": "Greenland-Iceland-UK Gap Chokepoint",
        "theater": "North Atlantic",
        "domain": "maritime_airspace",
        "min_altitude_ft": -2000,
        "max_altitude_ft": 45000,
        "description": "Strategic maritime and aerial chokepoint between Greenland, Iceland, and northern UK for tracking naval and long-range bomber transits."
      },
      "geometry": {
        "type": "Polygon",
        "coordinates": [
          [
            [-25.0, 60.0],
            [-10.0, 58.0],
            [-5.0, 62.0],
            [-18.0, 66.5],
            [-30.0, 65.0],
            [-25.0, 60.0]
          ]
        ]
      }
    }
  ]
}
